[
    {
        "Altitude(m)": 607895.8439971405,
        "Argument of Periapsis(deg)": 0.0,
        "Eccentricity": 0.0,
        "Inclination(deg)": 60.0,
        "Latitude(deg)": 40.99841167545481,
        "Longitude(deg)": 45.08857804688141,
        "Mean Anomaly(deg)": -229.09089999999995,
        "RAAN(deg)": 355.0,
        "Satellite Name": "Test1 1570",
        "Satellite Number": 1570,
        "Semi-Major Axis(m)": 6980739.136638005,
        "Time(s)": 0
    },
    {
        "Altitude(m)": 607795.1570239739,
        "Argument of Periapsis(deg)": 0.00010418945913296404,
        "Eccentricity": 0.0,
        "Inclination(deg)": 60.0,
        "Latitude(deg)": 40.53073661693947,
        "Longitude(deg)": 45.58517352040815,
        "Mean Anomaly(deg)": -228.4707938545382,
        "RAAN(deg)": 354.99957995086027,
        "Satellite Name": "Test1 1570",
        "Satellite Number": 1570,
        "Semi-Major Axis(m)": 6980739.136638005,
        "Time(s)": 10
    },
    {
        "Altitude(m)": 607694.6455862139,
        "Argument of Periapsis(deg)": 0.0002083789182659281,
        "Eccentricity": 0.0,
        "Inclination(deg)": 60.0,
        "Latitude(deg)": 40.06055159215495,
        "Longitude(deg)": 46.07432809519957,
        "Mean Anomaly(deg)": -227.85068770907634,
        "RAAN(deg)": 354.99915990172053,
        "Satellite Name": "Test1 1570",
        "Satellite Number": 1570,
        "Semi-Major Axis(m)": 6980739.136638005,
        "Time(s)": 20
    },
    {
        "Altitude(m)": 607594.3733825132,
        "Argument of Periapsis(deg)": 0.00031256837739889213,
        "Eccentricity": 0.0,
        "Inclination(deg)": 60.0,
        "Latitude(deg)": 39.587930175261924,
        "Longitude(deg)": 46.5562273773854,
        "Mean Anomaly(deg)": -227.23058156361452,
        "RAAN(deg)": 354.9987398525808,
        "Satellite Name": "Test1 1570",
        "Satellite Number": 1570,
        "Semi-Major Axis(m)": 6980739.136638005,
        "Time(s)": 30
    },
    {
        "Altitude(m)": 607494.4042118761,
        "Argument of Periapsis(deg)": 0.0004167578365318562,
        "Eccentricity": 0.0,
        "Inclination(deg)": 60.0,
        "Latitude(deg)": 39.112943700250575,
        "Longitude(deg)": 47.03105393319799,
        "Mean Anomaly(deg)": -226.61047541815267,
        "RAAN(deg)": 354.99831980344106,
        "Satellite Name": "Test1 1570",
        "Satellite Number": 1570,
        "Semi-Major Axis(m)": 6980739.136638005,
        "Time(s)": 40
    },
    {
        "Altitude(m)": 607394.8019417707,
        "Argument of Periapsis(deg)": 0.0005209472956648203,
        "Eccentricity": 0.0,
        "Inclination(deg)": 60.0,
        "Latitude(deg)": 38.63566133430005,
        "Longitude(deg)": 47.49898626852199,
        "Mean Anomaly(deg)": -225.99036927269083,
        "RAAN(deg)": 354.99789975430133,
        "Satellite Name": "Test1 1570",
        "Satellite Number": 1570,
        "Semi-Major Axis(m)": 6980739.136638005,
        "Time(s)": 50
    },
    {
        "Altitude(m)": 607295.6304761302,
        "Argument of Periapsis(deg)": 0.0006251367547977843,
        "Eccentricity": 0.0,
        "Inclination(deg)": 60.0,
        "Latitude(deg)": 38.15615014959938,
        "Longitude(deg)": 47.96019933213659,
        "Mean Anomaly(deg)": -225.37026312722898,
        "RAAN(deg)": 354.99747970516154,
        "Satellite Name": "Test1 1570",
        "Satellite Number": 1570,
        "Semi-Major Axis(m)": 6980739.136638005,
        "Time(s)": 60
    },
    {
        "Altitude(m)": 607196.9537232844,
        "Argument of Periapsis(deg)": 0.0007293262139307483,
        "Eccentricity": 0.0,
        "Inclination(deg)": 60.0,
        "Latitude(deg)": 37.67447519356154,
        "Longitude(deg)": 48.41486502864255,
        "Mean Anomaly(deg)": -224.7501569817672,
        "RAAN(deg)": 354.99705965602186,
        "Satellite Name": "Test1 1570",
        "Satellite Number": 1570,
        "Semi-Major Axis(m)": 6980739.136638005,
        "Time(s)": 70
    },
    {
        "Altitude(m)": 607098.8355638434,
        "Argument of Periapsis(deg)": 0.0008335156730637124,
        "Eccentricity": 0.0,
        "Inclination(deg)": 60.0,
        "Latitude(deg)": 37.19069955737433,
        "Longitude(deg)": 48.86315122715369,
        "Mean Anomaly(deg)": -224.13005083630534,
        "RAAN(deg)": 354.99663960688207,
        "Satellite Name": "Test1 1570",
        "Satellite Number": 1570,
        "Semi-Major Axis(m)": 6980739.136638005,
        "Time(s)": 80
    },
    {
        "Altitude(m)": 607001.3398185411,
        "Argument of Periapsis(deg)": 0.0009377051321966765,
        "Eccentricity": 0.0,
        "Inclination(deg)": 60.0,
        "Latitude(deg)": 36.70488444285387,
        "Longitude(deg)": 49.30522229054027,
        "Mean Anomaly(deg)": -223.50994469084358,
        "RAAN(deg)": 354.9962195577423,
        "Satellite Name": "Test1 1570",
        "Satellite Number": 1570,
        "Semi-Major Axis(m)": 6980739.136638005,
        "Time(s)": 90
    },
    {
        "Altitude(m)": 606904.5302160353,
        "Argument of Periapsis(deg)": 0.0010418945913296407,
        "Eccentricity": 0.0,
        "Inclination(deg)": 60.0,
        "Latitude(deg)": 36.21708922756924,
        "Longitude(deg)": 49.74123961146823,
        "Mean Anomaly(deg)": -222.88983854538174,
        "RAAN(deg)": 354.99579950860254,
        "Satellite Name": "Test1 1570",
        "Satellite Number": 1570,
        "Semi-Major Axis(m)": 6980739.136638005,
        "Time(s)": 100
    },
    {
        "Altitude(m)": 606808.470360739,
        "Argument of Periapsis(deg)": 0.0011460840504626045,
        "Eccentricity": 0.0,
        "Inclination(deg)": 60.0,
        "Latitude(deg)": 35.72737152822175,
        "Longitude(deg)": 50.17136064154787,
        "Mean Anomaly(deg)": -222.26973239991992,
        "RAAN(deg)": 354.9953794594628,
        "Satellite Name": "Test1 1570",
        "Satellite Number": 1570,
        "Semi-Major Axis(m)": 6980739.136638005,
        "Time(s)": 110
    },
    {
        "Altitude(m)": 606713.2237006084,
        "Argument of Periapsis(deg)": 0.0012502735095955685,
        "Eccentricity": 0.0,
        "Inclination(deg)": 60.0,
        "Latitude(deg)": 35.23578726227092,
        "Longitude(deg)": 50.59573943860445,
        "Mean Anomaly(deg)": -221.64962625445807,
        "RAAN(deg)": 354.9949594103231,
        "Satellite Name": "Test1 1570",
        "Satellite Number": 1570,
        "Semi-Major Axis(m)": 6980739.136638005,
        "Time(s)": 120
    },
    {
        "Altitude(m)": 606618.8534949899,
        "Argument of Periapsis(deg)": 0.0013544629687285324,
        "Eccentricity": 0.0,
        "Inclination(deg)": 60.0,
        "Latitude(deg)": 34.74239070780912,
        "Longitude(deg)": 51.01452721851703,
        "Mean Anomaly(deg)": -221.0295201089962,
        "RAAN(deg)": 354.99453936118334,
        "Satellite Name": "Test1 1570",
        "Satellite Number": 1570,
        "Semi-Major Axis(m)": 6980739.136638005,
        "Time(s)": 130
    },
    {
        "Altitude(m)": 606525.4227824901,
        "Argument of Periapsis(deg)": 0.0014586524278614966,
        "Eccentricity": 0.0,
        "Inclination(deg)": 60.0,
        "Latitude(deg)": 34.247234561686454,
        "Longitude(deg)": 51.42787139813749,
        "Mean Anomaly(deg)": -220.40941396353435,
        "RAAN(deg)": 354.9941193120436,
        "Satellite Name": "Test1 1570",
        "Satellite Number": 1570,
        "Semi-Major Axis(m)": 6980739.136638005,
        "Time(s)": 140
    },
    {
        "Altitude(m)": 606432.9943488884,
        "Argument of Periapsis(deg)": 0.0015628418869944607,
        "Eccentricity": 0.0,
        "Inclination(deg)": 60.0,
        "Latitude(deg)": 33.75036999590543,
        "Longitude(deg)": 51.835916154476394,
        "Mean Anomaly(deg)": -219.78930781807256,
        "RAAN(deg)": 354.9936992629039,
        "Satellite Name": "Test1 1570",
        "Satellite Number": 1570,
        "Semi-Major Axis(m)": 6980739.136638005,
        "Time(s)": 150
    },
    {
        "Altitude(m)": 606341.6306951559,
        "Argument of Periapsis(deg)": 0.0016670313461274247,
        "Eccentricity": 0.0,
        "Inclination(deg)": 60.0,
        "Latitude(deg)": 33.251846712300164,
        "Longitude(deg)": 52.23880298677348,
        "Mean Anomaly(deg)": -219.1692016726107,
        "RAAN(deg)": 354.99327921376414,
        "Satellite Name": "Test1 1570",
        "Satellite Number": 1570,
        "Semi-Major Axis(m)": 6980739.136638005,
        "Time(s)": 160
    },
    {
        "Altitude(m)": 606251.3940055158,
        "Argument of Periapsis(deg)": 0.0017712208052603888,
        "Eccentricity": 0.0,
        "Inclination(deg)": 60.0,
        "Latitude(deg)": 32.75171299552221,
        "Longitude(deg)": 52.63666976811614,
        "Mean Anomaly(deg)": -218.54909552714886,
        "RAAN(deg)": 354.99285916462435,
        "Satellite Name": "Test1 1570",
        "Satellite Number": 1570,
        "Semi-Major Axis(m)": 6980739.136638005,
        "Time(s)": 170
    },
    {
        "Altitude(m)": 606162.3461156316,
        "Argument of Periapsis(deg)": 0.001875410264393353,
        "Eccentricity": 0.0,
        "Inclination(deg)": 60.0,
        "Latitude(deg)": 32.25001576436264,
        "Longitude(deg)": 53.029651311938196,
        "Mean Anomaly(deg)": -217.92898938168702,
        "RAAN(deg)": 354.9924391154846,
        "Satellite Name": "Test1 1570",
        "Satellite Number": 1570,
        "Semi-Major Axis(m)": 6980739.136638005,
        "Time(s)": 180
    },
    {
        "Altitude(m)": 606074.5484809027,
        "Argument of Periapsis(deg)": 0.0019795997235263173,
        "Eccentricity": 0.0,
        "Inclination(deg)": 60.0,
        "Latitude(deg)": 31.746800621439384,
        "Longitude(deg)": 53.417879940147486,
        "Mean Anomaly(deg)": -217.3088832362252,
        "RAAN(deg)": 354.9920190663449,
        "Satellite Name": "Test1 1570",
        "Satellite Number": 1570,
        "Semi-Major Axis(m)": 6980739.136638005,
        "Time(s)": 190
    }
]